SL-16 R/B               
1 25400U 98043G   26001.30412234  .00000160  00000+0  86029-4 0  9998
2 25400  98.8151 314.2343 0009335 204.5632 155.5104 14.26031074429382
SL-16 R/B               
1 25407U 98045B   26001.25963335  .00000038  00000+0  43269-4 0  9997
2 25407  71.0127 323.3761 0005692 143.8067 216.3442 14.16181668417550
ISS (ZARYA)             
1 25544U 98067A   26001.21026978  .00014823  00000+0  27654-3 0  9998
2 25544  51.6328  46.0577 0007509 326.8003  33.2513 15.48996227545878
CZ-4B R/B               
1 25732U 99025C   26001.15168985  .00000138  00000+0  87528-4 0  9991
2 25732  98.6740  46.9948 0037183 177.6925 250.7311 14.18248896378596
OKEAN-O                 
1 25860U 99039A   26001.12332148  .00001344  00000+0  18373-3 0  9990
2 25860  97.9576  61.6550 0001311 114.5388 245.5961 14.80199904424394
SL-16 R/B               
1 25861U 99039B   26001.16735686  .00001111  00000+0  14790-3 0  9990
2 25861  98.0098  60.3172 0016042 114.6091 245.6795 14.81619164426867
DELTA 2 R/B             
1 25876U 99041E   26001.04402327  .00002995  00000+0  51963-3 0  9993
2 25876  51.7595 211.3823 0504232 148.6636 214.5411 14.11469453353470
HELIOS 1B               
1 25977U 99064A   26001.31346974  .00003556  00000+0  39988-3 0  9992
2 25977  98.1754 261.5598 0000506  38.6810 321.4441 14.87374572675240
TERRA                   
1 25994U 99068A   26001.32372981  .00000930  00000+0  19900-3 0  9998
2 25994  97.9721  57.2868 0003159  54.7768  12.1450 14.60927701385249
SL-16 R/B               
1 26070U 00006B   26001.11621487  .00000317  00000+0  18526-3 0  9995
2 26070  71.0014 239.9174 0018744 282.5495  77.3532 14.15813290338997
TITAN 4B R/B            
1 26474U 00047B   26001.23206486  .00005623  00000+0  35778-3 0  9992
2 26474  67.9887 230.1058 0037632 120.8746 239.6113 15.08940640382733
ENVISAT                 
1 27386U 02009A   25365.95019499  .00000264  00000+0  99422-4 0  9995
2 27386  98.3626 316.2065 0001107  88.1807 295.1197 14.39007536249430
