CCSDS_OMM_VERS = 2.0
CREATION_DATE  = 
ORIGINATOR     = 

OBJECT_NAME    = SL-16 R/B
OBJECT_ID      = 1998-043G
CENTER_NAME    = EARTH
REF_FRAME      = TEME
TIME_SYSTEM    = UTC
MEAN_ELEMENT_THEORY = SGP/SGP4

EPOCH          = 2026-01-01T07:17:56.170176
MEAN_MOTION    = 14.26031074
ECCENTRICITY   = .00093352
INCLINATION    = 98.8151
RA_OF_ASC_NODE = 314.2343
ARG_OF_PERICENTER = 204.5632
MEAN_ANOMALY   = 155.5104

EPHEMERIS_TYPE = 0
CLASSIFICATION_TYPE = U
NORAD_CAT_ID   = 25400
ELEMENT_SET_NO = 999
REV_AT_EPOCH   = 42938
BSTAR          = .86028834E-4
MEAN_MOTION_DOT = .16E-5
MEAN_MOTION_DDOT = 0

CCSDS_OMM_VERS = 2.0
CREATION_DATE  = 
ORIGINATOR     = 

OBJECT_NAME    = SL-16 R/B
OBJECT_ID      = 1998-045B
CENTER_NAME    = EARTH
REF_FRAME      = TEME
TIME_SYSTEM    = UTC
MEAN_ELEMENT_THEORY = SGP/SGP4

EPOCH          = 2026-01-01T06:13:52.321440
MEAN_MOTION    = 14.16181668
ECCENTRICITY   = .00056929
INCLINATION    = 71.0127
RA_OF_ASC_NODE = 323.3761
ARG_OF_PERICENTER = 143.8067
MEAN_ANOMALY   = 216.3442

EPHEMERIS_TYPE = 0
CLASSIFICATION_TYPE = U
NORAD_CAT_ID   = 25407
ELEMENT_SET_NO = 999
REV_AT_EPOCH   = 41755
BSTAR          = .43268811E-4
MEAN_MOTION_DOT = .38E-6
MEAN_MOTION_DDOT = 0

CCSDS_OMM_VERS = 2.0
CREATION_DATE  = 
ORIGINATOR     = 

OBJECT_NAME    = ISS (ZARYA)
OBJECT_ID      = 1998-067A
CENTER_NAME    = EARTH
REF_FRAME      = TEME
TIME_SYSTEM    = UTC
MEAN_ELEMENT_THEORY = SGP/SGP4

EPOCH          = 2026-01-01T05:02:47.308992
MEAN_MOTION    = 15.48996227
ECCENTRICITY   = .00075099
INCLINATION    = 51.6328
RA_OF_ASC_NODE = 46.0577
ARG_OF_PERICENTER = 326.8003
MEAN_ANOMALY   = 33.2513

EPHEMERIS_TYPE = 0
CLASSIFICATION_TYPE = U
NORAD_CAT_ID   = 25544
ELEMENT_SET_NO = 999
REV_AT_EPOCH   = 54587
BSTAR          = .27653728E-3
MEAN_MOTION_DOT = .14823E-3
MEAN_MOTION_DDOT = 0

CCSDS_OMM_VERS = 2.0
CREATION_DATE  = 
ORIGINATOR     = 

OBJECT_NAME    = CZ-4B R/B
OBJECT_ID      = 1999-025C
CENTER_NAME    = EARTH
REF_FRAME      = TEME
TIME_SYSTEM    = UTC
MEAN_ELEMENT_THEORY = SGP/SGP4

EPOCH          = 2026-01-01T03:38:26.003040
MEAN_MOTION    = 14.18248896
ECCENTRICITY   = .00371834
INCLINATION    = 98.6740
RA_OF_ASC_NODE = 46.9948
ARG_OF_PERICENTER = 177.6925
MEAN_ANOMALY   = 250.7311

EPHEMERIS_TYPE = 0
CLASSIFICATION_TYPE = U
NORAD_CAT_ID   = 25732
ELEMENT_SET_NO = 999
REV_AT_EPOCH   = 37859
BSTAR          = .8752763E-4
MEAN_MOTION_DOT = .138E-5
MEAN_MOTION_DDOT = 0

CCSDS_OMM_VERS = 2.0
CREATION_DATE  = 
ORIGINATOR     = 

OBJECT_NAME    = OKEAN-O
OBJECT_ID      = 1999-039A
CENTER_NAME    = EARTH
REF_FRAME      = TEME
TIME_SYSTEM    = UTC
MEAN_ELEMENT_THEORY = SGP/SGP4

EPOCH          = 2026-01-01T02:57:34.975872
MEAN_MOTION    = 14.80199904
ECCENTRICITY   = .00013111
INCLINATION    = 97.9576
RA_OF_ASC_NODE = 61.6550
ARG_OF_PERICENTER = 114.5388
MEAN_ANOMALY   = 245.5961

EPHEMERIS_TYPE = 0
CLASSIFICATION_TYPE = U
NORAD_CAT_ID   = 25860
ELEMENT_SET_NO = 999
REV_AT_EPOCH   = 42439
BSTAR          = .1837337E-3
MEAN_MOTION_DOT = .1344E-4
MEAN_MOTION_DDOT = 0

CCSDS_OMM_VERS = 2.0
CREATION_DATE  = 
ORIGINATOR     = 

OBJECT_NAME    = SL-16 R/B
OBJECT_ID      = 1999-039B
CENTER_NAME    = EARTH
REF_FRAME      = TEME
TIME_SYSTEM    = UTC
MEAN_ELEMENT_THEORY = SGP/SGP4

EPOCH          = 2026-01-01T04:00:59.632704
MEAN_MOTION    = 14.81619164
ECCENTRICITY   = .00160427
INCLINATION    = 98.0098
RA_OF_ASC_NODE = 60.3172
ARG_OF_PERICENTER = 114.6091
MEAN_ANOMALY   = 245.6795

EPHEMERIS_TYPE = 0
CLASSIFICATION_TYPE = U
NORAD_CAT_ID   = 25861
ELEMENT_SET_NO = 999
REV_AT_EPOCH   = 42686
BSTAR          = .14789728E-3
MEAN_MOTION_DOT = .1111E-4
MEAN_MOTION_DDOT = 0

CCSDS_OMM_VERS = 2.0
CREATION_DATE  = 
ORIGINATOR     = 

OBJECT_NAME    = DELTA 2 R/B
OBJECT_ID      = 1999-041E
CENTER_NAME    = EARTH
REF_FRAME      = TEME
TIME_SYSTEM    = UTC
MEAN_ELEMENT_THEORY = SGP/SGP4

EPOCH          = 2026-01-01T01:03:23.610528
MEAN_MOTION    = 14.11469453
ECCENTRICITY   = .05042321
INCLINATION    = 51.7595
RA_OF_ASC_NODE = 211.3823
ARG_OF_PERICENTER = 148.6636
MEAN_ANOMALY   = 214.5411

EPHEMERIS_TYPE = 0
CLASSIFICATION_TYPE = U
NORAD_CAT_ID   = 25876
ELEMENT_SET_NO = 999
REV_AT_EPOCH   = 35347
BSTAR          = .51963488E-3
MEAN_MOTION_DOT = .2995E-4
MEAN_MOTION_DDOT = 0

CCSDS_OMM_VERS = 2.0
CREATION_DATE  = 
ORIGINATOR     = 

OBJECT_NAME    = HELIOS 1B
OBJECT_ID      = 1999-064A
CENTER_NAME    = EARTH
REF_FRAME      = TEME
TIME_SYSTEM    = UTC
MEAN_ELEMENT_THEORY = SGP/SGP4

EPOCH          = 2026-01-01T07:31:23.785536
MEAN_MOTION    = 14.87374572
ECCENTRICITY   = .00005067
INCLINATION    = 98.1754
RA_OF_ASC_NODE = 261.5598
ARG_OF_PERICENTER = 38.6810
MEAN_ANOMALY   = 321.4441

EPHEMERIS_TYPE = 0
CLASSIFICATION_TYPE = U
NORAD_CAT_ID   = 25977
ELEMENT_SET_NO = 999
REV_AT_EPOCH   = 67524
BSTAR          = .39988378E-3
MEAN_MOTION_DOT = .3556E-4
MEAN_MOTION_DDOT = 0

CCSDS_OMM_VERS = 2.0
CREATION_DATE  = 
ORIGINATOR     = 

OBJECT_NAME    = TERRA
OBJECT_ID      = 1999-068A
CENTER_NAME    = EARTH
REF_FRAME      = TEME
TIME_SYSTEM    = UTC
MEAN_ELEMENT_THEORY = SGP/SGP4

EPOCH          = 2026-01-01T07:46:10.255584
MEAN_MOTION    = 14.60927701
ECCENTRICITY   = .00031596
INCLINATION    = 97.9721
RA_OF_ASC_NODE = 57.2868
ARG_OF_PERICENTER = 54.7768
MEAN_ANOMALY   = 12.1450

EPHEMERIS_TYPE = 0
CLASSIFICATION_TYPE = U
NORAD_CAT_ID   = 25994
ELEMENT_SET_NO = 999
REV_AT_EPOCH   = 38524
BSTAR          = .19900239E-3
MEAN_MOTION_DOT = .93E-5
MEAN_MOTION_DDOT = 0

CCSDS_OMM_VERS = 2.0
CREATION_DATE  = 
ORIGINATOR     = 

OBJECT_NAME    = SL-16 R/B
OBJECT_ID      = 2000-006B
CENTER_NAME    = EARTH
REF_FRAME      = TEME
TIME_SYSTEM    = UTC
MEAN_ELEMENT_THEORY = SGP/SGP4

EPOCH          = 2026-01-01T02:47:20.964768
MEAN_MOTION    = 14.15813290
ECCENTRICITY   = .00187442
INCLINATION    = 71.0014
RA_OF_ASC_NODE = 239.9174
ARG_OF_PERICENTER = 282.5495
MEAN_ANOMALY   = 77.3532

EPHEMERIS_TYPE = 0
CLASSIFICATION_TYPE = U
NORAD_CAT_ID   = 26070
ELEMENT_SET_NO = 999
REV_AT_EPOCH   = 33899
BSTAR          = .18525823E-3
MEAN_MOTION_DOT = .317E-5
MEAN_MOTION_DDOT = 0

CCSDS_OMM_VERS = 2.0
CREATION_DATE  = 
ORIGINATOR     = 

OBJECT_NAME    = TITAN 4B R/B
OBJECT_ID      = 2000-047B
CENTER_NAME    = EARTH
REF_FRAME      = TEME
TIME_SYSTEM    = UTC
MEAN_ELEMENT_THEORY = SGP/SGP4

EPOCH          = 2026-01-01T05:34:10.403904
MEAN_MOTION    = 15.08940640
ECCENTRICITY   = .00376326
INCLINATION    = 67.9887
RA_OF_ASC_NODE = 230.1058
ARG_OF_PERICENTER = 120.8746
MEAN_ANOMALY   = 239.6113

EPHEMERIS_TYPE = 0
CLASSIFICATION_TYPE = U
NORAD_CAT_ID   = 26474
ELEMENT_SET_NO = 999
REV_AT_EPOCH   = 38273
BSTAR          = .35778221E-3
MEAN_MOTION_DOT = .5623E-4
MEAN_MOTION_DDOT = 0

CCSDS_OMM_VERS = 2.0
CREATION_DATE  = 
ORIGINATOR     = 

OBJECT_NAME    = ENVISAT
OBJECT_ID      = 2002-009A
CENTER_NAME    = EARTH
REF_FRAME      = TEME
TIME_SYSTEM    = UTC
MEAN_ELEMENT_THEORY = SGP/SGP4

EPOCH          = 2025-12-31T22:48:16.847136
MEAN_MOTION    = 14.39007536
ECCENTRICITY   = .0001107
INCLINATION    = 98.3626
RA_OF_ASC_NODE = 316.2065
ARG_OF_PERICENTER = 88.1807
MEAN_ANOMALY   = 295.1197

EPHEMERIS_TYPE = 0
CLASSIFICATION_TYPE = U
NORAD_CAT_ID   = 27386
ELEMENT_SET_NO = 999
REV_AT_EPOCH   = 24943
BSTAR          = .99422E-4
MEAN_MOTION_DOT = .264E-5
MEAN_MOTION_DDOT = 0

